{"type":"FeatureCollection","features":[{"type":"Feature","properties":{},"geometry":{"type":"LineString","coordinates":[[53.620638,12.709455],[53.456881,12.69947],[53.405706,12.64455],[53.405706,12.574634],[53.308475,12.544664],[53.426176,12.454734],[53.528524,12.374769],[53.559229,12.349776],[53.692282,12.299781],[53.983976,12.324779],[54.009563,12.359773],[54.122146,12.354775],[54.168203,12.374769],[54.260317,12.454734],[54.296139,12.464727],[54.347313,12.454734],[54.424074,12.464727],[54.449661,12.514691],[54.526423,12.554654],[54.439427,12.559649],[54.265434,12.629569],[54.198907,12.654536],[54.152851,12.64455],[54.101676,12.689486],[54.055619,12.654536],[53.912332,12.64455],[53.871392,12.614588],[53.820218,12.6046],[53.774161,12.609594],[53.63599,12.709455],[53.630873,12.709455]]}}]}