{"type":"FeatureCollection","features":[{"type":"Feature","properties":{"Mill Reef":0},"geometry":{"type":"Point","coordinates":[-77.856873,38.962649]}},{"type":"Feature","properties":{},"geometry":{"type":"LineString","coordinates":[[-77.85712,38.962799],[-77.858268,38.96279],[-77.858847,38.963032],[-77.858839,38.963038],[-77.858839,38.963038]]}},{"type":"Feature","properties":{},"geometry":{"type":"LineString","coordinates":[[-77.858866,38.963017],[-77.85918,38.963176],[-77.859726,38.963102],[-77.868509,38.968235],[-77.867309,38.969794],[-77.866545,38.969868],[-77.862044,38.967874],[-77.861812,38.96815],[-77.877508,38.975246],[-77.877672,38.975002],[-77.867719,38.97047],[-77.867433,38.969993],[-77.867351,38.969791]]}}]}