{"type":"FeatureCollection","features":[{"type":"Feature","properties":{},"geometry":{"type":"Polygon","coordinates":[[[-73.037931,40.790677],[-76.558818,39.272806],[-73.037931,40.790677]]]}},{"type":"Feature","properties":{},"geometry":{"type":"Polygon","coordinates":[[[-78.119908,41.804465],[-78.119908,41.804465]]]}},{"type":"Feature","properties":{},"geometry":{"type":"Polygon","coordinates":[[[-76.759299,41.171587],[-78.983433,39.620138],[-76.570426,39.256641],[-72.223637,38.867313],[-72.978472,40.774787],[-74.923369,41.859391],[-76.759299,41.171587]]]}}]}